H1 CPF 01  gfz 2021 04 06 00  5961 terrasarx 
H2 0702601  6201 31698    2021 04 06 00 59 42 2021 04 11 00 00 42   120 1 1  0 0 0
H9
10 0 59311  66222.000000  0    3054381.429    510557.040  -6160221.123
10 0 59311  66342.000000  0    3840709.000    341872.300  -5715564.203
10 0 59311  66462.000000  0    4557266.755    154104.355  -5171013.944
10 0 59311  66582.000000  0    5191248.050    -48157.990  -4536000.020
10 0 59311  66702.000000  0    5731335.675   -259856.202  -3821548.625
10 0 59311  66822.000000  0    6167912.877   -475576.594  -3040099.923
10 0 59311  66942.000000  0    6493246.432   -689675.911  -2205298.620
10 0 59311  67062.000000  0    6701636.950   -896415.061  -1331758.396
10 0 59311  67182.000000  0    6789530.589  -1090097.310   -434804.795
10 0 59311  67302.000000  0    6755589.527  -1265208.149    469797.740
10 0 59311  67422.000000  0    6600718.901  -1416553.143   1366130.308
10 0 59311  67542.000000  0    6328048.157  -1539390.633   2238408.111
10 0 59311  67662.000000  0    5942867.628  -1629554.781   3071268.326
10 0 59311  67782.000000  0    5452520.535  -1683565.714   3850048.274
10 0 59311  67902.000000  0    4866255.131  -1698725.489   4561048.571
10 0 59311  68022.000000  0    4195040.987  -1673195.769   5191775.944
10 0 59311  68142.000000  0    3451355.040  -1606055.867   5731162.505
10 0 59311  68262.000000  0    2648940.268  -1497341.069   6169757.331
10 0 59311  68382.000000  0    1802544.770  -1348059.993   6499886.030
10 0 59311  68502.000000  0     927646.169  -1160191.206   6715779.594
10 0 59311  68622.000000  0      40165.337   -936657.977   6813669.460
10 0 59311  68742.000000  0    -843823.812   -681282.352   6791847.907
10 0 59311  68862.000000  0   -1708384.004   -398719.892   6650695.279
10 0 59311  68982.000000  0   -2538000.390    -94375.127   6392673.721
10 0 59311  69102.000000  0   -3317858.151    225700.778   6022287.861
10 0 59311  69222.000000  0   -4034108.869    554928.414   5546011.983
10 0 59311  69342.000000  0   -4674121.075    886332.630   4972182.899
10 0 59311  69462.000000  0   -5226709.764   1212687.283   4310860.066
10 0 59311  69582.000000  0   -5682340.375   1526669.485   3573653.195
10 0 59311  69702.000000  0   -6033301.786   1821019.757   2773520.826
10 0 59311  69822.000000  0   -6273845.815   2088704.706   1924542.777
10 0 59311  69942.000000  0   -6400289.790   2323078.468   1041669.592
10 0 59311  70062.000000  0   -6411077.989   2518039.210    140452.430
10 0 59311  70182.000000  0   -6306799.432   2668175.402   -763239.273
10 0 59311  70302.000000  0   -6090162.508   2768898.604  -1653506.231
10 0 59311  70422.000000  0   -5765927.191   2816560.007  -2514707.545
10 0 59311  70542.000000  0   -5340795.363   2808547.238  -3331743.284
10 0 59311  70662.000000  0   -4823263.391   2743358.210  -4090322.864
10 0 59311  70782.000000  0   -4223442.233   2620651.799  -4777214.741
10 0 59311  70902.000000  0   -3552849.537   2441273.950  -5380472.548
10 0 59311  71022.000000  0   -2824180.450   2207259.964  -5889633.915
10 0 59311  71142.000000  0   -2051062.854   1921813.303  -6295892.260
10 0 59311  71262.000000  0   -1247798.939   1589260.561  -6592238.208
10 0 59311  71382.000000  0    -429101.889   1214984.532  -6773568.251
10 0 59311  71502.000000  0     390169.054    805336.855  -6836762.935
10 0 59311  71622.000000  0    1195270.907    367532.334  -6780735.430
10 0 59311  71742.000000  0    1971837.356    -90475.642  -6606449.556
10 0 59311  71862.000000  0    2706129.160   -560136.031  -6316903.891
10 0 59311  71982.000000  0    3385273.345  -1032455.288  -5917086.300
10 0 59311  72102.000000  0    3997486.817  -1498164.538  -5413895.907
10 0 59311  72222.000000  0    4532282.593  -1947897.449  -4816036.206
10 0 59311  72342.000000  0    4980654.935  -2372376.540  -4133875.533
10 0 59311  72462.000000  0    5335238.405  -2762602.812  -3379277.442
10 0 59311  72582.000000  0    5590438.712  -3110045.349  -2565402.410
10 0 59311  72702.000000  0    5742531.016  -3406826.622  -1706482.201
10 0 59311  72822.000000  0    5789722.270  -3645898.863   -817571.862
10 0 59311  72942.000000  0    5732176.370  -3821207.766     85717.039
10 0 59311  73062.000000  0    5571999.941  -3927838.164    987496.481
10 0 59311  73182.000000  0    5313189.020  -3962139.178   1871889.982
10 0 59311  73302.000000  0    4961536.118  -3921822.374   2723322.192
10 0 59311  73422.000000  0    4524501.211  -3806031.707   3526800.596
10 0 59311  73542.000000  0    4011051.709  -3615384.344   4268185.369
10 0 59311  73662.000000  0    3431474.146  -3351982.048   4934442.664
10 0 59311  73782.000000  0    2797160.886  -3019390.978   5513874.635
10 0 59311  73902.000000  0    2120380.770  -2622591.639   5996322.500
10 0 59311  74022.000000  0    1414036.403  -2167901.002   6373340.143
10 0 59311  74142.000000  0     691414.660  -1662868.812   6638335.762
10 0 59311  74262.000000  0     -34065.033  -1116149.478   6786681.056
10 0 59311  74382.000000  0    -749099.865   -537351.937   6815786.722
10 0 59311  74502.000000  0   -1440746.394     63129.563   6725144.193
10 0 59311  74622.000000  0   -2096653.826    674301.664   6516334.046
10 0 59311  74742.000000  0   -2705284.023   1284772.339   6193000.340
10 0 59311  74862.000000  0   -3256115.165   1882962.189   5760791.237
10 0 59311  74982.000000  0   -3739826.340   2457323.798   5227266.964
10 0 59311  75102.000000  0   -4148460.067   2996566.226   4601773.900
10 0 59311  75222.000000  0   -4475558.849   3489879.253   3895285.961
10 0 59311  75342.000000  0   -4716273.494   3927152.807   3120215.431
10 0 59311  75462.000000  0   -4867439.365   4299187.479   2290195.822
10 0 59311  75582.000000  0   -4927619.500   4597892.012   1419840.544
10 0 59311  75702.000000  0   -4897112.287   4816460.697    524479.839
10 0 59311  75822.000000  0   -4777924.270   4949525.350   -380116.221
10 0 59311  75942.000000  0   -4573709.293   4993280.770  -1278024.237
10 0 59311  76062.000000  0   -4289671.511   4945578.384  -2153458.480
10 0 59311  76182.000000  0   -3932438.178   4805985.168  -2991055.791
10 0 59311  76302.000000  0   -3509905.546   4575806.877  -3776151.198
10 0 59311  76422.000000  0   -3031061.135   4258075.840  -4495035.386
10 0 59311  76542.000000  0   -2505789.205   3857505.267  -5135190.075
10 0 59311  76662.000000  0   -1944664.896   3380413.166  -5685498.641
10 0 59311  76782.000000  0   -1358740.161   2834616.194  -6136431.042
10 0 59311  76902.000000  0    -759325.775   2229295.059  -6480198.421
10 0 59311  77022.000000  0    -157774.895   1574836.512  -6710875.587
10 0 59311  77142.000000  0     434727.656    882654.739  -6824492.740
10 0 59311  77262.000000  0    1007368.100    164995.142  -6819097.240
10 0 59311  77382.000000  0    1549897.283   -565278.427  -6694783.722
10 0 59311  77502.000000  0    2052809.331  -1294908.966  -6453691.037
10 0 59311  77622.000000  0    2507504.690  -2010480.599  -6099969.658
10 0 59311  77742.000000  0    2906435.822  -2698659.216  -5639718.211
10 0 59311  77862.000000  0    3243234.031  -3346438.690  -5080890.585
10 0 59311  77982.000000  0    3512814.579  -3941387.998  -4433168.069
10 0 59311  78102.000000  0    3711455.699  -4471890.728  -3707801.123
10 0 59311  78222.000000  0    3836853.118  -4927375.660  -2917424.373
10 0 59311  78342.000000  0    3888148.601  -5298534.639  -2075843.576
10 0 59311  78462.000000  0    3865928.509  -5577520.511  -1197796.020
10 0 59311  78582.000000  0    3772193.502  -5758118.841   -298690.895
10 0 59311  78702.000000  0    3610298.698  -5835889.905    605666.721
10 0 59311  78822.000000  0    3384865.715  -5808276.193   1499360.760
10 0 59311  78942.000000  0    3101669.413  -5674672.518   2366654.234
10 0 59311  79062.000000  0    2767499.880  -5436454.696   3192275.173
10 0 59311  79182.000000  0    2390005.253  -5096969.467   3961691.765
10 0 59311  79302.000000  0    1977520.249  -4661485.127   4661372.793
10 0 59311  79422.000000  0    1538883.317  -4137103.537   5279027.733
10 0 59311  79542.000000  0    1083248.134  -3532636.726   5803822.319
10 0 59311  79662.000000  0     619891.566  -2858449.819   6226565.375
10 0 59311  79782.000000  0     158024.708  -2126276.279   6539862.824
10 0 59311  79902.000000  0    -293389.094  -1349009.441   6738239.935
10 0 59311  80022.000000  0    -725806.725   -540473.853   6818232.246
10 0 59311  80142.000000  0   -1131265.791    284822.019   6778442.874
10 0 59311  80262.000000  0   -1502530.651   1111946.017   6619565.071
10 0 59311  80382.000000  0   -1833221.134   1925811.575   6344370.654
10 0 59311  80502.000000  0   -2117922.754   2711452.136   5957664.874
10 0 59311  80622.000000  0   -2352276.086   3454297.018   5466207.388
10 0 59311  80742.000000  0   -2533044.358   4140443.818   4878600.835
10 0 59311  80862.000000  0   -2658158.828   4756923.947   4205146.783
10 0 59311  80982.000000  0   -2726739.628   5291955.008   3457669.563
10 0 59311  81102.000000  0   -2739091.626   5735174.290   2649310.152
10 0 59311  81222.000000  0   -2696675.188   6077847.229   1794294.193
10 0 59311  81342.000000  0   -2602052.769   6313046.694    907678.214
10 0 59311  81462.000000  0   -2458811.728   6435798.277      5078.553
10 0 59311  81582.000000  0   -2271465.913   6443187.721   -897611.688
10 0 59311  81702.000000  0   -2045338.488   6334427.702  -1784512.871
10 0 59311  81822.000000  0   -1786427.023   6110878.015  -2640049.557
10 0 59311  81942.000000  0   -1501255.923   5776020.863  -3449228.616
10 0 59311  82062.000000  0   -1196722.019   5335397.512  -4197903.297
10 0 59311  82182.000000  0    -879936.066   4796504.754  -4873019.436
10 0 59311  82302.000000  0    -558063.913   4168656.136  -5462837.520
10 0 59311  82422.000000  0    -238170.586   3462811.410  -5957129.787
10 0 59311  82542.000000  0      72929.492   2691376.375  -6347348.215
10 0 59311  82662.000000  0     368812.090   1867979.139  -6626760.189
99
